[{"OBJECT_NAME":"JINJUSAT-1B","OBJECT_ID":"2025-052A","EPOCH":"2026-03-09T15:55:38.242848","MEAN_MOTION":15.30194857,"ECCENTRICITY":0.00055504,"INCLINATION":97.4113,"RA_OF_ASC_NODE":325.4613,"ARG_OF_PERICENTER":82.193,"MEAN_ANOMALY":277.9941,"EPHEMERIS_TYPE":0,"CLASSIFICATION_TYPE":"U","NORAD_CAT_ID":63210,"ELEMENT_SET_NO":999,"REV_AT_EPOCH":5486,"BSTAR":0.00068430401,"MEAN_MOTION_DOT":0.00019955,"MEAN_MOTION_DDOT":0},{"OBJECT_NAME":"STARLINK-34198","OBJECT_ID":"2025-127U","EPOCH":"2026-03-09T07:30:21.320064","MEAN_MOTION":15.27593906,"ECCENTRICITY":0.00013649,"INCLINATION":42.9952,"RA_OF_ASC_NODE":181.5401,"ARG_OF_PERICENTER":174.3802,"MEAN_ANOMALY":185.7065,"EPHEMERIS_TYPE":0,"CLASSIFICATION_TYPE":"U","NORAD_CAT_ID":64388,"ELEMENT_SET_NO":999,"REV_AT_EPOCH":4241,"BSTAR":0.0010034352,"MEAN_MOTION_DOT":0.00027465,"MEAN_MOTION_DDOT":0}]
