JINJUSAT-1B             
1 63210U 25052A   26068.66363707  .00019955  00000+0  68430-3 0  9998
2 63210  97.4113 325.4613 0005550  82.1930 277.9941 15.30194857 54866
STARLINK-34198          
1 64388U 25127U   26068.31274676  .00027465  00000+0  10034-2 0  9997
2 64388  42.9952 181.5401 0001364 174.3802 185.7065 15.27593906 42411
